SITRO-AIS 52            
1 59063U 24039N   24159.56252066  .00027151  00000+0  99282-3 0  9992
2 59063  97.3919 121.7246 0014427 246.5280 113.4443 15.27945868 15136
SITRO-AIS 25            
1 59066U 24039R   24159.56007735  .00011717  00000+0  11185-2 0  9992
2 59066  95.4040  90.8401 0172806  16.9981 343.6927 14.82709304 14681
SITRO-AIS 26            
1 59067U 24039S   24159.55949654  .00011179  00000+0  10682-2 0  9990
2 59067  95.4040  90.8401 0172677  17.0283 343.6632 14.82694671 14688
SITRO-AIS 27            
1 59068U 24039T   24159.55134533  .00011423  00000+0  10881-2 0  9996
2 59068  95.4042  90.8503 0172356  16.8916 343.7944 14.82844742 14681
SITRO-AIS 28            
1 59071U 24039U   24159.54905730  .00012086  00000+0  11504-2 0  9993
2 59071  95.4043  90.8535 0172184  16.8811 343.8040 14.82883863 14689
